{
  "type": "FeatureCollection",
  "features": [
    {
      "type": "Feature",
      "properties": {
        "norad_id": 58701,
        "name": "TIANMU-1 16",
        "group": "weather",
        "lat": -82.44450513245951,
        "lon": -114.78982537262664,
        "alt_km": 497.6187338130594,
        "timestamp": "2025-12-09T09:46:47.291200+00:00",
        "meta_object_name": "TIANMU-1 16",
        "meta_object_id": "2024-004B",
        "meta_epoch": "2025-12-08T23:08:26.047968",
        "meta_mean_motion": 15.24353377,
        "meta_eccentricity": 0.00046663,
        "meta_inclination": 97.4569,
        "meta_ra_of_asc_node": 163.8407,
        "meta_arg_of_pericenter": 312.7918,
        "meta_mean_anomaly": 47.2927,
        "meta_ephemeris_type": 0,
        "meta_classification_type": "U",
        "meta_norad_cat_id": 58701,
        "meta_element_set_no": 999,
        "meta_rev_at_epoch": 10677,
        "meta_bstar": 0.00034755409,
        "meta_mean_motion_dot": 8.44e-05,
        "meta_mean_motion_ddot": 0,
        "tle_line1": "1 58701U 24004B   25342.96419037  .00008440  00000+0  34755-3 0  9998",
        "tle_line2": "2 58701  97.4569 163.8407 0004666 312.7918  47.2927 15.24353377106777"
      },
      "geometry": {
        "type": "Point",
        "coordinates": [
          -114.78982537262664,
          -82.44450513245951
        ]
      }
    },
    {
      "type": "Feature",
      "properties": {
        "norad_id": 58702,
        "name": "TIANMU-1 17",
        "group": "weather",
        "lat": -4.8634285199617056,
        "lon": 165.32886305043323,
        "alt_km": 494.2147462506009,
        "timestamp": "2025-12-09T09:46:47.291217+00:00",
        "meta_object_name": "TIANMU-1 17",
        "meta_object_id": "2024-004C",
        "meta_epoch": "2025-12-08T22:46:24.606624",
        "meta_mean_motion": 15.24400311,
        "meta_eccentricity": 0.00038881,
        "meta_inclination": 97.4603,
        "meta_ra_of_asc_node": 164.2335,
        "meta_arg_of_pericenter": 316.8759,
        "meta_mean_anomaly": 43.2174,
        "meta_ephemeris_type": 0,
        "meta_classification_type": "U",
        "meta_norad_cat_id": 58702,
        "meta_element_set_no": 999,
        "meta_rev_at_epoch": 10676,
        "meta_bstar": 0.0004336499,
        "meta_mean_motion_dot": 0.00010565,
        "meta_mean_motion_ddot": 0,
        "tle_line1": "1 58702U 24004C   25342.94889591  .00010565  00000+0  43365-3 0  9991",
        "tle_line2": "2 58702  97.4603 164.2335 0003888 316.8759  43.2174 15.24400311106765"
      },
      "geometry": {
        "type": "Point",
        "coordinates": [
          165.32886305043323,
          -4.8634285199617056
        ]
      }
    },
    {
      "type": "Feature",
      "properties": {
        "norad_id": 58703,
        "name": "TIANMU-1 18",
        "group": "weather",
        "lat": 81.90494614675201,
        "lon": 97.7363044954928,
        "alt_km": 486.60906513455393,
        "timestamp": "2025-12-09T09:46:47.291236+00:00",
        "meta_object_name": "TIANMU-1 18",
        "meta_object_id": "2024-004D",
        "meta_epoch": "2025-12-08T23:56:51.895968",
        "meta_mean_motion": 15.2438746,
        "meta_eccentricity": 0.00032508,
        "meta_inclination": 97.462,
        "meta_ra_of_asc_node": 164.4767,
        "meta_arg_of_pericenter": 317.7129,
        "meta_mean_anomaly": 42.3857,
        "meta_ephemeris_type": 0,
        "meta_classification_type": "U",
        "meta_norad_cat_id": 58703,
        "meta_element_set_no": 999,
        "meta_rev_at_epoch": 10677,
        "meta_bstar": 0.00035627964,
        "meta_mean_motion_dot": 8.661e-05,
        "meta_mean_motion_ddot": 0,
        "tle_line1": "1 58703U 24004D   25342.99782287  .00008661  00000+0  35628-3 0  9998",
        "tle_line2": "2 58703  97.4620 164.4767 0003250 317.7129  42.3857 15.24387460106778"
      },
      "geometry": {
        "type": "Point",
        "coordinates": [
          97.7363044954928,
          81.90494614675201
        ]
      }
    },
    {
      "type": "Feature",
      "properties": {
        "norad_id": 58990,
        "name": "INSAT-3DS",
        "group": "weather",
        "lat": -0.01309799595853132,
        "lon": -52.81568975708609,
        "alt_km": 35781.52070507044,
        "timestamp": "2025-12-09T09:46:47.291256+00:00",
        "meta_object_name": "INSAT-3DS",
        "meta_object_id": "2024-033A",
        "meta_epoch": "2025-12-08T23:20:38.624928",
        "meta_mean_motion": 1.0026959,
        "meta_eccentricity": 0.00016622,
        "meta_inclination": 0.0157,
        "meta_ra_of_asc_node": 80.0081,
        "meta_arg_of_pericenter": 184.8154,
        "meta_mean_anomaly": 245.3901,
        "meta_ephemeris_type": 0,
        "meta_classification_type": "U",
        "meta_norad_cat_id": 58990,
        "meta_element_set_no": 999,
        "meta_rev_at_epoch": 4516,
        "meta_bstar": 0,
        "meta_mean_motion_dot": -1.53e-06,
        "meta_mean_motion_ddot": 0,
        "tle_line1": "1 58990U 24033A   25342.97266927 -.00000153  00000+0  00000+0 0  9995",
        "tle_line2": "2 58990   0.0157  80.0081 0001662 184.8154 245.3901  1.00269590 45161"
      },
      "geometry": {
        "type": "Point",
        "coordinates": [
          -52.81568975708609,
          -0.01309799595853132
        ]
      }
    },
    {
      "type": "Feature",
      "properties": {
        "norad_id": 59051,
        "name": "METEOR-M2 4",
        "group": "weather",
        "lat": 42.82226341234421,
        "lon": -67.76622346578338,
        "alt_km": 809.418515725376,
        "timestamp": "2025-12-09T09:46:47.291274+00:00",
        "meta_object_name": "METEOR-M2 4",
        "meta_object_id": "2024-039A",
        "meta_epoch": "2025-12-08T23:26:49.538400",
        "meta_mean_motion": 14.22400291,
        "meta_eccentricity": 0.00072521,
        "meta_inclination": 98.6761,
        "meta_ra_of_asc_node": 299.945,
        "meta_arg_of_pericenter": 9.26,
        "meta_mean_anomaly": 350.871,
        "meta_ephemeris_type": 0,
        "meta_classification_type": "U",
        "meta_norad_cat_id": 59051,
        "meta_element_set_no": 999,
        "meta_rev_at_epoch": 9222,
        "meta_bstar": 5.6144577e-05,
        "meta_mean_motion_dot": 8.1e-07,
        "meta_mean_motion_ddot": 0,
        "tle_line1": "1 59051U 24039A   25342.97696225  .00000081  00000+0  56145-4 0  9993",
        "tle_line2": "2 59051  98.6761 299.9450 0007252   9.2600 350.8710 14.22400291 92224"
      },
      "geometry": {
        "type": "Point",
        "coordinates": [
          -67.76622346578338,
          42.82226341234421
        ]
      }
    },
    {
      "type": "Feature",
      "properties": {
        "norad_id": 60133,
        "name": "GOES 19",
        "group": "weather",
        "lat": -0.003330946344785841,
        "lon": 149.9034351471784,
        "alt_km": 35791.31468204995,
        "timestamp": "2025-12-09T09:46:47.291292+00:00",
        "meta_object_name": "GOES 19",
        "meta_object_id": "2024-119A",
        "meta_epoch": "2025-12-08T21:48:24.352416",
        "meta_mean_motion": 1.00271448,
        "meta_eccentricity": 0.00013499,
        "meta_inclination": 0.0087,
        "meta_ra_of_asc_node": 198.1567,
        "meta_arg_of_pericenter": 105.4692,
        "meta_mean_anomaly": 26.2013,
        "meta_ephemeris_type": 0,
        "meta_classification_type": "U",
        "meta_norad_cat_id": 60133,
        "meta_element_set_no": 999,
        "meta_rev_at_epoch": 505,
        "meta_bstar": 0,
        "meta_mean_motion_dot": -2.46e-06,
        "meta_mean_motion_ddot": 0,
        "tle_line1": "1 60133U 24119A   25342.90861519 -.00000246  00000+0  00000+0 0  9996",
        "tle_line2": "2 60133   0.0087 198.1567 0001349 105.4692  26.2013  1.00271448  5052"
      },
      "geometry": {
        "type": "Point",
        "coordinates": [
          149.9034351471784,
          -0.003330946344785841
        ]
      }
    },
    {
      "type": "Feature",
      "properties": {
        "norad_id": 65815,
        "name": "FENGYUN 3H",
        "group": "weather",
        "lat": -47.08072553375389,
        "lon": -67.49880765590751,
        "alt_km": 832.727867022335,
        "timestamp": "2025-12-09T09:46:47.291312+00:00",
        "meta_object_name": "FENGYUN 3H",
        "meta_object_id": "2025-219A",
        "meta_epoch": "2025-12-09T03:14:22.781760",
        "meta_mean_motion": 14.19902981,
        "meta_eccentricity": 6.05e-05,
        "meta_inclination": 98.658,
        "meta_ra_of_asc_node": 282.8038,
        "meta_arg_of_pericenter": 84.326,
        "meta_mean_anomaly": 275.7985,
        "meta_ephemeris_type": 0,
        "meta_classification_type": "U",
        "meta_norad_cat_id": 65815,
        "meta_element_set_no": 999,
        "meta_rev_at_epoch": 1041,
        "meta_bstar": 9.9066e-05,
        "meta_mean_motion_dot": 1.67e-06,
        "meta_mean_motion_ddot": 0,
        "tle_line1": "1 65815U 25219A   25343.13498590  .00000167  00000+0  99066-4 0  9997",
        "tle_line2": "2 65815  98.6580 282.8038 0000605  84.3260 275.7985 14.19902981 10411"
      },
      "geometry": {
        "type": "Point",
        "coordinates": [
          -67.49880765590751,
          -47.08072553375389
        ]
      }
    }
  ]
}